     3.00           N                   E                   RINEX VERSION / TYPE
BRD_USR             ESA                 20190105 051827  UTCPGM / RUN BY / DATE
 GAL   4.1500E+01 -7.8125E-03 -2.7466E-04  0.0000E+00       IONOSPHERIC CORR
GAUT -9.3132257462E-10 0.000000000E+00 518400 2034 GSTB   0 TIME SYSTEM CORR
GPGA -3.2014213502E-09-1.332267630E-15 518400 2034 GSTB   0 TIME SYSTEM CORR
                                                            END OF HEADER
E01 2019 01 05 02 40 00-5.139813292772E-04-8.242295734817E-12 0.000000000000E+00
     1.120000000000E+02 2.048125000000E+02 2.399385658329E-09 9.949373955933E-01
     9.501352906227E-06 1.151412725449E-04 9.756535291672E-06 5.440631567001E+03
     5.280000000000E+05 3.725290298462E-08-2.825445728459E+00 3.725290298462E-09
     9.903545560139E-01 1.486875000000E+02-8.587472696079E-01-5.172001148893E-09
     1.096474243982E-10 2.580000000000E+02 2.034000000000E+03 0.000000000000E+00
     3.120000000000E+00 0.000000000000E+00-4.656612873077E-09 0.000000000000E+00
     5.292000000000E+05 0.000000000000E+00 0.000000000000E+00 0.000000000000E+00
E02 2019 01 05 02 40 00 4.201341653243E-05 1.520561454527E-12 0.000000000000E+00
     1.120000000000E+02 1.650937500000E+02 2.478317517587E-09-2.735208801271E+00
     7.759779691696E-06 2.696728333831E-04 1.081265509129E-05 5.440626560211E+03
     5.280000000000E+05-1.490116119385E-08-2.825478592913E+00-9.313225746155E-09
     9.903626006004E-01 1.241250000000E+02-2.719040165451E-01-5.154143262184E-09
     8.714648714384E-11 2.580000000000E+02 2.034000000000E+03 0.000000000000E+00
     3.120000000000E+00 0.000000000000E+00-6.286427378654E-09 0.000000000000E+00
     5.292000000000E+05 0.000000000000E+00 0.000000000000E+00 0.000000000000E+00
E03 2019 01 05 02 20 00-1.186059089378E-04-4.348521542852E-12 0.000000000000E+00
     1.100000000000E+02 2.015625000000E+01 3.714440435639E-09-1.715321748916E+00
     9.387731552124E-07 2.801618538797E-04 4.060566425323E-06 5.440606800079E+03
     5.268000000000E+05-1.490116119385E-08 1.365452001951E+00 9.313225746155E-09
     9.521592044756E-01 2.489375000000E+02 6.493713078472E-01-5.805598969357E-09
     2.967980771169E-10 2.580000000000E+02 2.034000000000E+03 0.000000000000E+00
     3.120000000000E+00 0.000000000000E+00-1.862645149231E-09 0.000000000000E+00
     5.292000000000E+05 0.000000000000E+00 0.000000000000E+00 0.000000000000E+00
E04 2019 01 05 02 40 00-1.934578758664E-04-7.943867785798E-12 0.000000000000E+00
     1.120000000000E+02 1.568750000000E+01 3.668724245662E-09-4.292247433906E-01
     7.823109626770E-07 8.571858052164E-05 4.241243004799E-06 5.440601423264E+03
     5.280000000000E+05-3.911554813385E-08 1.365496189392E+00-5.401670932770E-08
     9.522045051968E-01 2.467500000000E+02 1.872718503614E+00-5.690594178946E-09
     2.528676758108E-10 2.580000000000E+02 2.034000000000E+03 0.000000000000E+00
     3.120000000000E+00 0.000000000000E+00-7.916241884232E-09 0.000000000000E+00
     5.292000000000E+05 0.000000000000E+00 0.000000000000E+00 0.000000000000E+00
E05 2019 01 05 02 10 00 1.305481418967E-04-6.579625733139E-12 0.000000000000E+00
     1.090000000000E+02 2.431250000000E+01 3.691939498385E-09-1.888759378409E+00
     1.214444637299E-06 1.525160623714E-04 4.228204488754E-06 5.440603918076E+03
     5.262000000000E+05 0.000000000000E+00 1.365438241744E+00-2.607703208923E-08
     9.521727803554E-01 2.445000000000E+02 1.535885861251E+00-5.762025725785E-09
     3.464430021702E-10 2.580000000000E+02 2.034000000000E+03 0.000000000000E+00
     3.120000000000E+00 0.000000000000E+00-1.164153218269E-09 0.000000000000E+00
     5.292000000000E+05 0.000000000000E+00 0.000000000000E+00 0.000000000000E+00
E07 2019 01 05 02 40 00-1.066431286745E-04-7.176481631177E-12 0.000000000000E+00
     1.120000000000E+02 1.931250000000E+01 3.676938873549E-09-2.604543955950E+00
     9.573996067047E-07 1.468496629968E-04 3.956258296967E-06 5.440603334427E+03
     5.280000000000E+05-5.587935447693E-09 1.365447010474E+00 2.235174179077E-08
     9.522040165822E-01 2.519687500000E+02 1.169437065576E-01-5.784169505306E-09
     2.539391490134E-10 2.580000000000E+02 2.034000000000E+03 0.000000000000E+00
     3.120000000000E+00 0.000000000000E+00 2.328306436539E-10 0.000000000000E+00
     5.292000000000E+05 0.000000000000E+00 0.000000000000E+00 0.000000000000E+00
E08 2019 01 05 02 10 00 6.429704197217E-03-7.659650691494E-12 0.000000000000E+00
     1.090000000000E+02 2.093750000000E+01 3.585863651329E-09-2.438896314027E+00
     1.026317477226E-06 2.317382022738E-04 4.198402166367E-06 5.440605073929E+03
     5.262000000000E+05-7.450580596924E-09 1.356809945060E+00 1.862645149231E-09
     9.581448435158E-01 2.498750000000E+02 5.147933643985E-01-5.735953211189E-09
     2.660825119761E-10 2.580000000000E+02 2.034000000000E+03 0.000000000000E+00
     3.120000000000E+00 0.000000000000E+00-8.614733815193E-09 0.000000000000E+00
     5.292000000000E+05 0.000000000000E+00 0.000000000000E+00 0.000000000000E+00
E09 2019 01 05 02 40 00 6.567734119017E-03-1.138289462688E-11 0.000000000000E+00
     1.120000000000E+02 1.793750000000E+01 3.514432104489E-09 4.978475328681E-01
     8.735805749893E-07 2.535094972700E-04 4.522502422333E-06 5.440602493286E+03
     5.280000000000E+05-1.490116119385E-08 1.356795520688E+00 5.029141902924E-08
     9.581765069147E-01 2.421562500000E+02 1.561482433554E-01-5.618805474373E-09
     3.303709041314E-10 2.580000000000E+02 2.034000000000E+03 0.000000000000E+00
     3.120000000000E+00 0.000000000000E+00-3.259629011154E-09 0.000000000000E+00
     5.292000000000E+05 0.000000000000E+00 0.000000000000E+00 0.000000000000E+00
E11 2019 01 05 02 40 00 5.719021253753E-03 1.065814103640E-12 0.000000000000E+00
     1.120000000000E+02-2.109687500000E+02 2.719756145903E-09 3.106488243144E+00
    -9.898096323013E-06 2.354549942538E-04 4.114583134651E-06 5.440610074997E+03
     5.280000000000E+05 5.587935447693E-09-7.397421622589E-01 1.862645149231E-08
     9.819991301254E-01 2.615000000000E+02-3.570033144153E-01-5.564160341041E-09
    -3.950164540209E-10 2.580000000000E+02 2.034000000000E+03 0.000000000000E+00
     3.120000000000E+00 0.000000000000E+00-1.885928213596E-08 0.000000000000E+00
     5.292000000000E+05 0.000000000000E+00 0.000000000000E+00 0.000000000000E+00
E12 2019 01 05 02 40 00 5.871940462384E-03 8.424194675172E-11 0.000000000000E+00
     1.120000000000E+02-2.215312500000E+02 2.815831576402E-09-1.827221234939E+00
    -1.027062535286E-05 3.662307281047E-04 4.680827260017E-06 5.440607669830E+03
     5.280000000000E+05 1.862645149231E-09-7.397578052419E-01 1.862645149231E-09
     9.820127820769E-01 2.462812500000E+02-9.028088626643E-01-5.595947379384E-09
    -4.203746531488E-10 2.580000000000E+02 2.034000000000E+03 0.000000000000E+00
     3.120000000000E+00 0.000000000000E+00-1.559965312481E-08 0.000000000000E+00
     5.292000000000E+05 0.000000000000E+00 0.000000000000E+00 0.000000000000E+00
E13 2019 01 05 02 10 00 3.813426592387E-04 3.836930773105E-13 0.000000000000E+00
     1.090000000000E+02-1.900000000000E+02 2.702255416928E-09 1.005635923241E+00
    -8.959323167801E-06 3.295397618786E-04 5.451962351799E-06 5.440600772858E+03
     5.262000000000E+05-2.235174179077E-08-7.450358966385E-01 3.725290298462E-09
     9.852407810389E-01 2.354687500000E+02-1.614544688610E+00-5.484514166315E-09
    -3.818016178556E-10 2.580000000000E+02 2.034000000000E+03 0.000000000000E+00
     3.120000000000E+00 5.600000000000E+01-4.423782229424E-09 0.000000000000E+00
     5.292000000000E+05 0.000000000000E+00 0.000000000000E+00 0.000000000000E+00
E14 2019 01 05 02 40 00 6.464608653914E-03-5.726974450226E-12 0.000000000000E+00
     1.120000000000E+02-1.181562500000E+02 5.436297872199E-09 2.222825597334E+00
    -6.034970283508E-06 1.663939789869E-01-1.273676753044E-05 5.289386201859E+03
     5.280000000000E+05 3.131106495857E-06-1.340007744290E+00-8.810311555862E-07
     8.825591681661E-01 6.084062500000E+02 1.452307556382E+00-6.551701476093E-09
    -2.607251459631E-11 2.580000000000E+02 2.034000000000E+03 0.000000000000E+00
     3.120000000000E+00 5.600000000000E+01 3.306195139885E-08 0.000000000000E+00
     5.292000000000E+05 0.000000000000E+00 0.000000000000E+00 0.000000000000E+00
E15 2019 01 05 02 40 00 9.238329366781E-04-1.051603248925E-12 0.000000000000E+00
     1.120000000000E+02-1.830937500000E+02 2.684397530218E-09 2.084927017099E+00
    -8.545815944672E-06 3.782142885029E-04 4.306435585022E-06 5.440606534958E+03
     5.280000000000E+05-3.725290298462E-08-7.450565676709E-01-2.980232238770E-08
     9.851976717689E-01 2.556250000000E+02-1.688481750374E+00-5.532373302697E-09
    -3.889447725395E-10 2.580000000000E+02 2.034000000000E+03 0.000000000000E+00
     3.120000000000E+00 5.600000000000E+01 1.396983861923E-09 0.000000000000E+00
     5.292000000000E+05 0.000000000000E+00 0.000000000000E+00 0.000000000000E+00
E18 2019 01 05 02 40 00 5.630142695736E-03-2.856381797756E-11 0.000000000000E+00
     1.120000000000E+02-1.546875000000E+01 6.206687104860E-09-9.489421598442E-01
     7.040798664093E-07 1.664261696860E-01 4.900619387627E-06 5.289328964233E+03
     5.280000000000E+05-2.205371856689E-06-1.322801836646E+00 3.702938556671E-06
     8.817548250849E-01 2.612187500000E+02 1.436845433923E+00-9.965415099539E-09
    -6.689564361493E-10 2.580000000000E+02 2.034000000000E+03 0.000000000000E+00
     3.120000000000E+00 5.600000000000E+01 1.420266926289E-08 0.000000000000E+00
     5.292000000000E+05 0.000000000000E+00 0.000000000000E+00 0.000000000000E+00
